{
  "norad_id": 49420,
  "name": "STARLINK-3110",
  "history": [
    {
      "epoch": "2026-04-14T20:49:52.264128Z",
      "apogee_km": 540.7413982938424,
      "perigee_km": 538.729680959319,
      "latitude_deg": -1.5318257895193958e-05,
      "longitude_deg": -88.79679728595599,
      "height_km": 540.550461055681,
      "semi_major_axis_km": 6917.87253962658,
      "eccentricity": 0.0001454,
      "inclination_deg": 53.2173,
      "raan_deg": 66.7092,
      "arg_perigee_deg": 85.4008,
      "mean_anomaly_deg": 274.715,
      "mean_motion_rev_day": 15.08842568
    },
    {
      "epoch": "2026-04-15T14:19:06.900096Z",
      "apogee_km": 540.7422100806425,
      "perigee_km": 538.7609267946427,
      "latitude_deg": -8.02351061367395e-06,
      "longitude_deg": 4.903244379043142,
      "height_km": 540.6097257347982,
      "semi_major_axis_km": 6917.888568437643,
      "eccentricity": 0.0001432,
      "inclination_deg": 53.2175,
      "raan_deg": 63.4384,
      "arg_perigee_deg": 87.8328,
      "mean_anomaly_deg": 272.2828,
      "mean_motion_rev_day": 15.08837324
    },
    {
      "epoch": "2026-04-16T14:09:53.926272Z",
      "apogee_km": 540.7691315287066,
      "perigee_km": 538.720055000781,
      "latitude_deg": -5.94437810608185e-05,
      "longitude_deg": 1.767128979730491,
      "height_km": 540.6054846811093,
      "semi_major_axis_km": 6917.881593264743,
      "eccentricity": 0.0001481,
      "inclination_deg": 53.2176,
      "raan_deg": 58.9776,
      "arg_perigee_deg": 88.0603,
      "mean_anomaly_deg": 272.0558,
      "mean_motion_rev_day": 15.08839606
    },
    {
      "epoch": "2026-04-17T14:00:40.842720Z",
      "apogee_km": 540.7960963108617,
      "perigee_km": 538.681163373305,
      "latitude_deg": -2.022709537805142e-05,
      "longitude_deg": -1.3684610509551194,
      "height_km": 540.6112152740515,
      "semi_major_axis_km": 6917.875629842083,
      "eccentricity": 0.00015286,
      "inclination_deg": 53.2175,
      "raan_deg": 54.5168,
      "arg_perigee_deg": 88.7591,
      "mean_anomaly_deg": 271.3576,
      "mean_motion_rev_day": 15.08841557
    },
    {
      "epoch": "2026-04-18T20:13:00.488928Z",
      "apogee_km": 540.8141908619418,
      "perigee_km": 538.6682650356324,
      "latitude_deg": 1.8416737367151067e-05,
      "longitude_deg": -101.34118509576655,
      "height_km": 540.6753105217236,
      "semi_major_axis_km": 6917.878227948787,
      "eccentricity": 0.0001551,
      "inclination_deg": 53.2184,
      "raan_deg": 48.8664,
      "arg_perigee_deg": 92.0584,
      "mean_anomaly_deg": 268.0586,
      "mean_motion_rev_day": 15.08840707
    },
    {
      "epoch": "2026-04-19T16:53:01.281120Z",
      "apogee_km": 540.8313671186597,
      "perigee_km": 538.6591520891443,
      "latitude_deg": 5.705676132563236e-06,
      "longitude_deg": -56.05875511056164,
      "height_km": 540.6823496900274,
      "semi_major_axis_km": 6917.882259603902,
      "eccentricity": 0.000157,
      "inclination_deg": 53.2182,
      "raan_deg": 45.0009,
      "arg_perigee_deg": 92.1947,
      "mean_anomaly_deg": 267.9225,
      "mean_motion_rev_day": 15.08839388
    },
    {
      "epoch": "2026-04-20T05:36:07.118208Z",
      "apogee_km": 540.8412193655367,
      "perigee_km": 538.7035853602065,
      "latitude_deg": -9.478321744263734e-06,
      "longitude_deg": 110.26508997947329,
      "height_km": 540.6977904087684,
      "semi_major_axis_km": 6917.909402362871,
      "eccentricity": 0.0001545,
      "inclination_deg": 53.218,
      "raan_deg": 42.6214,
      "arg_perigee_deg": 91.6019,
      "mean_anomaly_deg": 268.515,
      "mean_motion_rev_day": 15.08830508
    }
  ]
}